SMILE                   
1 69123U 26109A   26158.38327019 -.00000041  00000+0 -36778-3 0  9994
2 69123  69.9787 209.3069 3310191 288.5544  45.7342  7.54049028  2480
STARLINK-37726          
1 69124U 26110A   26168.16860824  .00028332  00000+0  52050-3 0  9992
2 69124  97.2838   4.3860 0001541  87.6790 272.4638 15.49201318  5595
STARLINK-37722          
1 69125U 26110B   26166.55038854  .00028583  00000+0  52493-3 0  9993
2 69125  97.2822   2.9146 0001731  97.0248 263.1200 15.49208597  5356
STARLINK-37715          
1 69126U 26110C   26168.04302772  .00014976  00000+0  46519-3 0  9996
2 69126  97.2831   4.4042 0001275  90.5049 269.6340 15.33450520  5588
STARLINK-37706          
1 69127U 26110D   26168.10556405  .00012356  00000+0  38434-3 0  9995
2 69127  97.2844   4.4725 0001538  89.1163 271.0256 15.33450726  5596
STARLINK-37723          
1 69128U 26110E   26168.10284731  .00017109  00000+0  53106-3 0  9990
2 69128  97.2848   4.4771 0001475  94.5642 265.5769 15.33446032  5596
STARLINK-37720          
1 69129U 26110F   26168.09523061  .00030674  00000+0  56272-3 0  9990
2 69129  97.2810   4.3312 0001580  85.1450 274.9981 15.49226602  5581
STARLINK-37533          
1 69130U 26110G   26168.16668980 -.00043865  00000+0 -13644-2 0  9993
2 69130  97.2848   4.5591 0001512  97.2809 300.1210 15.33441649  5650
STARLINK-37530          
1 69131U 26110H   26168.16668980 -.00037708  00000+0 -11704-2 0  9998
2 69131  97.2850   4.5674 0001988  93.0177 319.3207 15.33474481  5653
STARLINK-37660          
1 69132U 26110J   26168.16668980 -.00027243  00000+0 -75497-3 0  9992
2 69132  97.2853   4.5581 0001873  90.2197 302.2055 15.36966931  5659
STARLINK-37633          
1 69133U 26110K   26168.16668980 -.00268884  00000+0 -76896-2 0  9994
2 69133  97.2842   4.5815 0000873  70.2543   3.6262 15.37048304  5658
STARLINK-37361          
1 69134U 26110L   26168.16668980 -.00036119  00000+0 -11205-2 0  9992
2 69134  97.2850   4.5868 0002139  92.2183   5.1003 15.33480446  5650
STARLINK-37372          
1 69135U 26110M   26168.16668980 -.00026135  00000+0 -72444-3 0  9993
2 69135  97.2849   4.5801 0001123  73.3104  11.5459 15.36952666  5658
STARLINK-37531          
1 69136U 26110N   26168.16668980 -.00047947  00000+0 -14909-2 0  9999
2 69136  97.2847   4.5976 0001867  97.1788  30.1298 15.33472990  5659
STARLINK-37662          
1 69137U 26110P   26168.16668980 -.02189107  00000+0 -64039-1 0  9995
2 69137  97.2850   4.5868 0001394  75.4399  18.0162 15.38588145  5656
STARLINK-37658          
1 69138U 26110Q   26168.04324848  .00038274  00000+0  70122-3 0  9991
2 69138  97.2837   4.4017 0000353  78.8851 281.2440 15.49220637  5587
STARLINK-37659          
1 69139U 26110R   26168.05094169  .00025923  00000+0  47604-3 0  9999
2 69139  97.2831   4.3918 0000804  86.8897 273.2446 15.49231356  5588
STARLINK-37653          
1 69140U 26110S   26168.05340925  .00035442  00000+0  64979-3 0  9996
2 69140  97.2858   4.3902 0000512 100.6219 259.5090 15.49216443  5583
STARLINK-37654          
1 69141U 26110T   26166.52422448  .00038342  00000+0  70164-3 0  9993
2 69141  97.2827   2.9503 0001818  88.7991 271.3469 15.49252690  5355
STARLINK-37655          
1 69142U 26110U   26168.16668980 -.00035483  00000+0 -98397-3 0  9992
2 69142  97.2853   4.6179 0001354  98.6191  77.5618 15.37002267  5655
STARLINK-37636          
1 69143U 26110V   26168.16668980 -.00047506  00000+0 -14773-2 0  9997
2 69143  97.2846   4.6426 0002088  80.9679 151.2471 15.33466724  5658
STARLINK-37638          
1 69144U 26110W   26168.16668980 -.00039723  00000+0 -12335-2 0  9992
2 69144  97.2849   4.6499 0001401  87.1116 160.2205 15.33472623  5655
STARLINK-37657          
1 69145U 26110X   26168.07465029  .00016455  00000+0  30332-3 0  9995
2 69145  97.2848   4.5148 0002075  85.3195 274.8293 15.49212177  5595
STARLINK-37639          
1 69146U 26110Y   26168.16668980 -.00039198  00000+0 -12184-2 0  9992
2 69146  97.2845   4.6632 0001634  84.7795 192.4810 15.33436806  5704
STARLINK-37661          
1 69147U 26110Z   26168.03150839  .00043399  00000+0  79431-3 0  9993
2 69147  97.2846   4.4198 0001347  18.5855 341.5445 15.49222788  5580
STARLINK-37395          
1 69148U 26111A   26168.16668980 -.02410959  00000+0 -32548-1 0  9990
2 69148  53.1601 152.2346 0001703 102.8764 154.5511 15.60718196  5548
STARLINK-37346          
1 69149U 26111B   26168.16668980  .00016317  00000+0  30101-3 0  9992
2 69149  53.1599 152.9168 0001292  89.4331 191.4231 15.49291543  5545
STARLINK-37332          
1 69150U 26111C   26168.00002315  .00036954  00000+0  66982-3 0  9996
2 69150  53.1600 154.0375 0001152  99.8364 170.0952 15.49288368  5521
STARLINK-37297          
1 69151U 26111D   26168.16668980 -.02533102  00000+0 -42415-1 0  9994
2 69151  53.1596 152.2152 0001420  95.5743 171.3226 15.54635068  5540
STARLINK-37317          
1 69152U 26111E   26168.16668980 -.02497400  00000+0 -35749-1 0  9997
2 69152  53.1602 152.0366 0001025 107.5810 246.7426 15.59348315  5544
